#dP2023  4  8  6  0  0.00000000      96 __u+U ITR00 EXT  IAC
## 2256 540000.00000000   900.00000000 60042 0.2500000000000
+  118   C06C07C08C09C10C11C12C13C14C16C19C20C21C22C23C24C25
+        C26C27C28C29C30C32C33C34C35C36C37C38C39C40C41C42C43
+        C44C45C46E01E02E03E04E05E07E08E09E10E11E12E13E14E15
+        E18E19E21E24E25E26E27E30E31E33E34E36G01G03G04G05G06
+        G07G08G09G10G11G12G13G14G15G16G17G18G19G20G21G22G23
+        G24G25G26G27G28G29G30G31G32J02J03J04R01R02R03R04R05
+        R07R08R09R11R12R13R14R15R16R17R18R19R20R22R24R25  0
++        10 10  9  9  9 11  9 10  8 10  9  8  9 10  8  9  8
++         9  8  8  9 10  7  8  8  9  9  9  9 11  9  8  8  9
++        10  9  9  8  8  8  8  8  8  8  8  7  7  8  9  8  8
++         8  8  8  8  9  8  8  8  8  8  9  8  7  8  8  7  7
++         8  8  8  8  7  8  8  8  8  8  8  7  8  7  9  8  7
++         8  7  8  8  8  7  8  7  7  9 10  8  8  7  8  8  8
++         9  9  9  8  8  8  9  9  9  8  8  9  9  8  9 10  0
%c M  cc GPS ccc cccc cccc cccc cccc ccccc ccccc ccccc ccccc
%c cc cc ccc ccc cccc cccc cccc cccc ccccc ccccc ccccc ccccc
%f  0.0000000  0.000000000  0.00000000000  0.000000000000000
%f  0.0000000  0.000000000  0.00000000000  0.000000000000000
%i    0    0    0    0      0      0      0      0         0
%i    0    0    0    0      0      0      0      0         0
/* IAC                                ULTRA-RAPID PREDICTION
/* S/V CLOCKS ARE ALIGNED TO GNSS TIME                      
/* G:C1WC2W R:C1PC2P E:C1XC5X C:C2IC6I J:C1CC2S             
/* PCV:IGS20_2247 OL/AL:FES2004  NONE     YN ORB:CoN CLK:CoN
*  2023 04 09  0 45  0.00000000
PC06 -18907.835063  31283.599332  20813.283862   -197.256397
PC07  -6127.158671  38408.869910  16530.813604   -142.136573
PC08  -4401.175232  20423.819027 -36609.459254    507.909055
PC09  -9957.014674  29929.438417  28133.475142    788.661356
PC10    105.639900  41216.528850  10380.954539    -28.676337
PC11 -22530.746710  14054.431977   8664.679540     57.850302
PC12 -17838.768549  -2156.417837  21383.884411    559.340972
PC13   2669.781279  23760.668562 -34527.473403    248.515039
PC14 -13774.302594   8422.647624 -22743.869097     98.346220
PC16 -21333.387214  31033.161226  18885.571793    114.978103
PC19   8648.909684 -17912.357530  19593.637247   -899.925550
PC20  16300.397601    654.193341  22664.194363    635.977663
PC21 -14655.956938 -20319.284129 -12239.777786   -909.521401
PC22  -4358.161144 -27087.306884   5019.292358   -545.131613
PC23   2458.451957  16946.967854  22034.549947   -902.138459
PC24 -27328.214712  -3183.521807   4730.008021   -194.185153
PC25 -16602.633980  10809.030283  19651.117415    102.961545
PC26 -22009.497369 -13061.251691 -11180.716627   -103.602349
PC27  12290.810528  10203.871398 -22904.528815    122.813370
PC28  -3662.832473  21296.219594 -17656.566680     90.355879
PC29  18309.874233 -21049.622410    780.563649    104.594245
PC30  21647.763884  -7140.271928 -16125.634704      0.494244
PC32  14832.095555  20257.221030  12220.921794   -582.632421
PC33  -8571.012137  17940.071100 -19579.128282   -872.721153
PC34 -21886.233271   8269.355709  15175.755505    144.771805
PC35   3742.745363 -21820.658521  17001.023242    649.534341
PC36  17476.770499 -10009.975840 -19294.172664   -512.715620
PC37  20729.561188  14095.160376  12248.880624   -791.891263
PC38 -14019.789495  18868.939256 -34979.049652     70.498095
PC39 -24682.950489  31551.756856  12840.157643     -2.484371
PC40  -9985.392287  35956.299073  19834.583273    -19.829393
PC41   4079.550786  27036.258428  -5549.835303   -826.635455
PC42 -16566.392760  -2086.608957 -22304.949083   -746.158138
PC43 -18747.323100  20651.820991     -6.401689     15.777103
PC44 -12564.138640 -10040.768358  22787.918557     70.056387
PC45  -3014.160459 -16893.109046 -22013.674263    -82.671254
PC46  27085.335484   2059.232265  -6313.462094    -45.666855
PE01  20592.194485    189.669687 -21264.699314     -4.661075
PE02 -20371.757263    237.303851  21471.585598     31.227561
PE03 -17956.383332  12316.126330 -20052.875295   -667.341723
PE04  10963.182761 -27045.614172   4961.878247    -96.452191
PE05 -14551.674409 -10062.613189 -23721.804456    -78.579482
PE07   2556.646520  26319.491225  13321.474740    -36.170356
PE08 -11003.685206  26991.041522  -5183.451480    -64.363441
PE09  -2391.408242 -26369.082443 -13211.094004   -898.263034
PE10   6154.382306 -17171.340501  23304.588979   -525.105003
PE11  -6085.704522 -14973.509491  24785.242644   1541.546372
PE12  16355.447964 -16579.294554  18281.797166   -491.154439
PE13   5194.436092  15161.124982 -24885.382152    -18.393247
PE14  -1260.177944 -20984.743814  10543.614754    191.782941
PE15 -16635.241134  16486.236203 -18089.527145    -13.249917
PE18   4818.393228  26920.137033 -17525.523913   -187.534122
PE19  18070.336650  -9438.650794  21473.435364  -2810.723243
PE21  23545.007593  16064.687175  -7980.858569   -522.290304
PE24 -12563.453457 -24202.518208 -11563.907559    -33.827371
PE25 -23484.704374 -16313.971085   7662.830455   -602.925008
PE26  24236.052985   4599.606430 -16362.750063     69.691593
PE27  13291.178124  24094.045782  10890.737170    -20.462564
PE30  -5336.339952  17462.610331  23279.389276    -77.661693
PE31   4671.628201 -17853.767240 -23143.108692   -520.792433
PE33  28480.940624  -8069.573905    669.532187   -446.815871
PE34 -28424.426384   8217.422961   -833.365675    -39.233662
PE36 -23683.330223  -4987.604586  17029.943132    -38.543537
PG01   4138.194171  14178.518995 -22412.163298    194.980052
PG03  11213.329033  22192.734644  -9631.025324   -333.450194
PG04   1950.856375  22594.522860  13744.463585     12.279084
PG05   2842.499562 -16921.675509  20070.685371   -122.675093
PG06  26099.120004  -5211.701995   -109.272978    586.096017
PG07  18739.697118   8757.114842  17375.139288    205.573467
PG08  -5881.904020  25577.132941  -2357.448147   -116.833322
PG09  10314.166286  14261.537649  19806.675666   -183.961538
PG10 -20371.064338  -6840.949853 -15633.344958    -32.030336
PG11  19525.177875 -12299.637785  13130.744646   -156.287837
PG12  -7643.313946 -22835.177708 -11588.748975   -361.610432
PG13  13321.431315 -22626.105502   3026.568654    502.936257
PG14  20785.780895   9512.152399 -13634.478440     19.437661
PG15   2263.378148 -26175.573901  -3178.666749     28.924594
PG16  -7377.461015  14174.386204  20825.710698   -510.167586
PG17  15642.828020   -719.544746 -21042.795824    709.655006
PG18 -21359.821063  -6059.541016  14687.199829   -215.846121
PG19  17463.692493  -9921.562354 -17457.056195    301.109460
PG20  11480.420236 -10608.139747  21497.778045    440.123715
PG21  -4826.494590  15955.177015 -19899.415155    154.265662
PG22 -16852.117803  13860.681775 -14580.133527    460.680958
PG23 -20567.176805 -15931.569929  -5721.599640     15.585674
PG24   -211.686172 -16340.187050 -21239.129687   -144.416226
PG25 -16631.565336 -20775.332038  -2583.141018    434.153098
PG26 -17067.087110   3945.170614  19935.528238    241.835894
PG27 -12738.786495  21534.602432   8009.249429     63.082562
PG28 -26015.484302   4853.506857  -2247.117384     61.531364
PG29  -6024.520941 -18046.390423  18443.488862   -594.679290
PG30  25620.789797    535.001190   7587.646589   -523.277181
PG31 -24970.654836   8274.362716   4965.501321   -213.542915
PG32 -16267.516171   4035.693191 -20381.459589   -446.412686
PJ02 -25781.905394  22251.123291  29871.204950     -1.460248
PJ03 -35700.227621  21757.005921   -951.338231      2.009711
PJ04 -20419.676027  26877.353870 -20105.320943     94.165375
PR01 -10929.777292   1356.059601 -23000.017413     26.321696
PR02  -5530.295361  19361.885339 -15568.661133    -22.986331
PR03   2967.711244  25294.185808    811.563688     75.678164
PR04   9320.546010  17183.508897  16415.674186    182.578134
PR05  10796.352311   -259.209928  23126.207204    110.656776
PR07  -3251.370871 -25279.922919  -1475.952574     53.419673
PR08  -9496.617421 -17041.757694 -16385.118080    -70.262170
PR09  10060.016127  -7679.499318 -22143.608210    113.676774
PR11 -20880.454967 -12722.387658  -7233.937118    -32.591955
PR12 -22393.252636  -3768.693017  11657.077524     26.295743
PR13 -11686.468798   6354.174473  21747.271974    -33.786645
PR14   7937.485765  13940.235315  19846.503085     24.518259
PR15  21313.261866  12631.998636   6094.268484     89.910808
PR16  22526.508875   3892.349493 -11345.445422     13.304557
PR17  -4748.702563  14715.873595 -20292.267007    619.524868
PR18  10636.431712   4975.090015 -22640.794017     75.586216
PR19  20276.457238  -5675.690555 -14404.593898   -228.376506
PR20  19291.175462 -15696.988469   5785.270806    -90.774635
PR22 -11374.735769  -5117.494828  22271.138942     78.489150
PR24 -18361.808948  16537.554492  -6328.563881    160.424538
PR25   5445.584607 -14763.491873  20074.052290     60.451202
EOF
